start=new Date('2023-01-02T00:00:00.000Z').valueOf();
sats=[{"MEAN_ELEMENT_THEORY":"SGP4","MEAN_MOTION_DOT":"-0.00007755","ELEMENT_SET_NO":"999","CLASSIFICATION_TYPE":"U","NORAD_CAT_ID":"45563","CENTER_NAME":"EARTH","SEMIMAJOR_AXIS":"6925.429","EPHEMERIS_TYPE":"0","PERIAPSIS":"546.031","PERIOD":"95.594","ARG_OF_PERICENTER":"81.1829","MEAN_MOTION":"15.06373808","APOAPSIS":"548.556","FILE":"3728952","RCS_SIZE":"LARGE","REF_FRAME":"TEME","TLE_LINE1":"1 45563U 20025AJ  23001.81506472 -.00007755  00000-0 -50264-3 0  9997","DECAY_DATE":null,"SITE":"AFETR","BSTAR":"-0.00050264000000","MEAN_MOTION_DDOT":"0.0000000000000","EPOCH":"2023-01-01T19:33:41.591808","ECCENTRICITY":"0.00018230","OBJECT_ID":"2020-025AJ","REV_AT_EPOCH":"15009","COUNTRY_CODE":"US","MEAN_ANOMALY":"278.9367","GP_ID":"221986560","OBJECT_TYPE":"PAYLOAD","LAUNCH_DATE":"2020-04-22","TLE_LINE2":"2 45563  53.0568 266.9624 0001823  81.1829 278.9367 15.06373808150098","TIME_SYSTEM":"UTC","INCLINATION":"53.0568","OBJECT_NAME":"STARLINK-1355","RA_OF_ASC_NODE":"266.9624"},{"RCS_SIZE":"LARGE","REF_FRAME":"TEME","FILE":"3728910","APOAPSIS":"548.243","MEAN_MOTION":"15.06379942","ARG_OF_PERICENTER":"78.0446","SEMIMAJOR_AXIS":"6925.410","PERIOD":"95.593","EPHEMERIS_TYPE":"0","PERIAPSIS":"546.307","ELEMENT_SET_NO":"999","MEAN_MOTION_DOT":"-0.00001518","MEAN_ELEMENT_THEORY":"SGP4","NORAD_CAT_ID":"45564","CENTER_NAME":"EARTH","CLASSIFICATION_TYPE":"U","TIME_SYSTEM":"UTC","RA_OF_ASC_NODE":"266.0952","OBJECT_NAME":"STARLINK-1356","INCLINATION":"53.0517","LAUNCH_DATE":"2020-04-22","TLE_LINE2":"2 45564  53.0517 266.0952 0001398  78.0446 282.0700 15.06379942149523","REV_AT_EPOCH":"14952","OBJECT_ID":"2020-025AK","ECCENTRICITY":"0.00013980","OBJECT_TYPE":"PAYLOAD","GP_ID":"221965884","MEAN_ANOMALY":"282.0700","COUNTRY_CODE":"US","TLE_LINE1":"1 45564U 20025AK  23002.01041741 -.00001518  00000-0 -83113-4 0  9995","SITE":"AFETR","DECAY_DATE":null,"BSTAR":"-0.00008311300000","EPOCH":"2023-01-02T00:15:00.064224","MEAN_MOTION_DDOT":"0.0000000000000"},{"CLASSIFICATION_TYPE":"U","CENTER_NAME":"EARTH","NORAD_CAT_ID":"45565","MEAN_MOTION_DOT":"-0.00004971","MEAN_ELEMENT_THEORY":"SGP4","ELEMENT_SET_NO":"999","PERIAPSIS":"546.113","EPHEMERIS_TYPE":"0","PERIOD":"95.593","SEMIMAJOR_AXIS":"6925.370","MEAN_MOTION":"15.06393156","ARG_OF_PERICENTER":"72.3719","FILE":"3728952","APOAPSIS":"548.356","REF_FRAME":"TEME","RCS_SIZE":"LARGE","EPOCH":"2023-01-01T17:42:14.225760","MEAN_MOTION_DDOT":"0.0000000000000","TLE_LINE1":"1 45565U 20025AL  23001.73766465 -.00004971  00000-0 -31509-3 0  9998","SITE":"AFETR","DECAY_DATE":null,"BSTAR":"-0.00031509000000","COUNTRY_CODE":"US","GP_ID":"221986059","OBJECT_TYPE":"PAYLOAD","MEAN_ANOMALY":"287.7447","OBJECT_ID":"2020-025AL","ECCENTRICITY":"0.00016200","REV_AT_EPOCH":"15008","TLE_LINE2":"2 45565  53.0561 267.3210 0001620  72.3719 287.7447 15.06393156150088","LAUNCH_DATE":"2020-04-22","INCLINATION":"53.0561","RA_OF_ASC_NODE":"267.3210","OBJECT_NAME":"STARLINK-1357","TIME_SYSTEM":"UTC"},{"LAUNCH_DATE":"2020-04-22","TLE_LINE2":"2 45566  53.0538 266.9531 0001346  94.5416 265.5727 15.06389068150092","TIME_SYSTEM":"UTC","INCLINATION":"53.0538","RA_OF_ASC_NODE":"266.9531","OBJECT_NAME":"STARLINK-1358","TLE_LINE1":"1 45566U 20025AM  23001.81875684 -.00005335  00000-0 -33965-3 0  9995","SITE":"AFETR","DECAY_DATE":null,"BSTAR":"-0.00033965000000","EPOCH":"2023-01-01T19:39:00.590976","MEAN_MOTION_DDOT":"0.0000000000000","OBJECT_ID":"2020-025AM","ECCENTRICITY":"0.00013460","REV_AT_EPOCH":"15009","COUNTRY_CODE":"US","OBJECT_TYPE":"PAYLOAD","GP_ID":"221985811","MEAN_ANOMALY":"265.5727","MEAN_MOTION":"15.06389068","ARG_OF_PERICENTER":"94.5416","FILE":"3728952","APOAPSIS":"548.179","RCS_SIZE":"LARGE","REF_FRAME":"TEME","MEAN_MOTION_DOT":"-0.00005335","MEAN_ELEMENT_THEORY":"SGP4","ELEMENT_SET_NO":"999","CLASSIFICATION_TYPE":"U","NORAD_CAT_ID":"45566","CENTER_NAME":"EARTH","SEMIMAJOR_AXIS":"6925.382","PERIAPSIS":"546.315","EPHEMERIS_TYPE":"0","PERIOD":"95.593"},{"RCS_SIZE":"LARGE","REF_FRAME":"TEME","MEAN_MOTION":"15.06387149","ARG_OF_PERICENTER":"59.0726","FILE":"3728952","APOAPSIS":"548.229","SEMIMAJOR_AXIS":"6925.388","PERIAPSIS":"546.277","EPHEMERIS_TYPE":"0","PERIOD":"95.593","MEAN_MOTION_DOT":"-0.00005195","MEAN_ELEMENT_THEORY":"SGP4","ELEMENT_SET_NO":"999","CLASSIFICATION_TYPE":"U","NORAD_CAT_ID":"45567","CENTER_NAME":"EARTH","TIME_SYSTEM":"UTC","INCLINATION":"53.0538","RA_OF_ASC_NODE":"267.4863","OBJECT_NAME":"STARLINK-1361","LAUNCH_DATE":"2020-04-22","TLE_LINE2":"2 45567  53.0538 267.4863 0001409  59.0726 301.0401 15.06387149150089","OBJECT_ID":"2020-025AN","ECCENTRICITY":"0.00014090","REV_AT_EPOCH":"15008","COUNTRY_CODE":"US","OBJECT_TYPE":"PAYLOAD","GP_ID":"221987060","MEAN_ANOMALY":"301.0401","TLE_LINE1":"1 45567U 20025AN  23001.69710720 -.00005195  00000-0 -33023-3 0  9990","SITE":"AFETR","DECAY_DATE":null,"BSTAR":"-0.00033023000000","EPOCH":"2023-01-01T16:43:50.062080","MEAN_MOTION_DDOT":"0.0000000000000"},{"TLE_LINE2":"2 45568  53.0560 267.3850 0001768  58.2008 301.9153 15.06383172150087","LAUNCH_DATE":"2020-04-22","INCLINATION":"53.0560","OBJECT_NAME":"STARLINK-1363","RA_OF_ASC_NODE":"267.3850","TIME_SYSTEM":"UTC","MEAN_MOTION_DDOT":"0.0000000000000","EPOCH":"2023-01-01T18:40:39.963648","TLE_LINE1":"1 45568U 20025AP  23001.77824032 -.00005086  00000-0 -32295-3 0  9991","SITE":"AFETR","DECAY_DATE":null,"BSTAR":"-0.00032295000000","COUNTRY_CODE":"US","MEAN_ANOMALY":"301.9153","OBJECT_TYPE":"PAYLOAD","GP_ID":"221987310","ECCENTRICITY":"0.00017680","OBJECT_ID":"2020-025AP","REV_AT_EPOCH":"15008","ARG_OF_PERICENTER":"58.2008","MEAN_MOTION":"15.06383172","APOAPSIS":"548.490","FILE":"3728952","REF_FRAME":"TEME","RCS_SIZE":"LARGE","CLASSIFICATION_TYPE":"U","NORAD_CAT_ID":"45568","CENTER_NAME":"EARTH","MEAN_ELEMENT_THEORY":"SGP4","MEAN_MOTION_DOT":"-0.00005086","ELEMENT_SET_NO":"999","EPHEMERIS_TYPE":"0","PERIAPSIS":"546.041","PERIOD":"95.593","SEMIMAJOR_AXIS":"6925.400"},{"NORAD_CAT_ID":"45569","CENTER_NAME":"EARTH","CLASSIFICATION_TYPE":"U","ELEMENT_SET_NO":"999","MEAN_ELEMENT_THEORY":"SGP4","MEAN_MOTION_DOT":"-0.00019901","PERIOD":"95.593","EPHEMERIS_TYPE":"0","PERIAPSIS":"545.628","SEMIMAJOR_AXIS":"6925.395","APOAPSIS":"548.892","FILE":"3728952","ARG_OF_PERICENTER":"38.8663","MEAN_MOTION":"15.06384827","REF_FRAME":"TEME","RCS_SIZE":"LARGE","MEAN_MOTION_DDOT":"0.0000000000000","EPOCH":"2023-01-01T20:00:09.781920","TLE_LINE1":"1 45569U 20025AQ  23001.83344655 -.00019901  00000-0 -13213-2 0  9996","DECAY_DATE":null,"BSTAR":"-0.00132130000000","SITE":"AFETR","MEAN_ANOMALY":"321.2495","OBJECT_TYPE":"PAYLOAD","GP_ID":"221985561","COUNTRY_CODE":"US","REV_AT_EPOCH":"15009","ECCENTRICITY":"0.00023560","OBJECT_ID":"2020-025AQ","TLE_LINE2":"2 45569  53.0544 266.8955 0002356  38.8663 321.2495 15.06384827150098","LAUNCH_DATE":"2020-04-22","OBJECT_NAME":"STARLINK-1366","RA_OF_ASC_NODE":"266.8955","INCLINATION":"53.0544","TIME_SYSTEM":"UTC"},{"INCLINATION":"53.0552","RA_OF_ASC_NODE":"266.0194","OBJECT_NAME":"STARLINK-1376","TIME_SYSTEM":"UTC","TLE_LINE2":"2 45570  53.0552 266.0194 0001771  78.3509 281.7679 15.06396928149529","LAUNCH_DATE":"2020-04-22","COUNTRY_CODE":"US","OBJECT_TYPE":"PAYLOAD","GP_ID":"221965835","MEAN_ANOMALY":"281.7679","OBJECT_ID":"2020-025AR","ECCENTRICITY":"0.00017710","REV_AT_EPOCH":"14952","EPOCH":"2023-01-02T00:36:14.462496","MEAN_MOTION_DDOT":"0.0000000000000","TLE_LINE1":"1 45570U 20025AR  23002.02516739 -.00001234  00000-0 -63922-4 0  9998","SITE":"AFETR","DECAY_DATE":null,"BSTAR":"-0.00006392200000","REF_FRAME":"TEME","RCS_SIZE":"LARGE","MEAN_MOTION":"15.06396928","ARG_OF_PERICENTER":"78.3509","FILE":"3728910","APOAPSIS":"548.449","EPHEMERIS_TYPE":"0","PERIAPSIS":"545.996","PERIOD":"95.592","SEMIMAJOR_AXIS":"6925.358","CLASSIFICATION_TYPE":"U","NORAD_CAT_ID":"45570","CENTER_NAME":"EARTH","MEAN_MOTION_DOT":"-0.00001234","MEAN_ELEMENT_THEORY":"SGP4","ELEMENT_SET_NO":"999"},{"TLE_LINE2":"2 45571  53.0550 256.8392 0001753  63.8533 296.2637 15.06383338150259","LAUNCH_DATE":"2020-04-22","INCLINATION":"53.0550","RA_OF_ASC_NODE":"256.8392","OBJECT_NAME":"STARLINK-1261","TIME_SYSTEM":"UTC","EPOCH":"2023-01-01T20:12:10.101312","MEAN_MOTION_DDOT":"0.0000000000000","DECAY_DATE":null,"TLE_LINE1":"1 45571U 20025AS  23001.84178358 -.00005332  00000-0 -33944-3 0  9992","BSTAR":"-0.00033944000000","SITE":"AFETR","COUNTRY_CODE":"US","GP_ID":"221986561","OBJECT_TYPE":"PAYLOAD","MEAN_ANOMALY":"296.2637","OBJECT_ID":"2020-025AS","ECCENTRICITY":"0.00017530","REV_AT_EPOCH":"15025","MEAN_MOTION":"15.06383338","ARG_OF_PERICENTER":"63.8533","FILE":"3728952","APOAPSIS":"548.479","REF_FRAME":"TEME","RCS_SIZE":"LARGE","CLASSIFICATION_TYPE":"U","CENTER_NAME":"EARTH","NORAD_CAT_ID":"45571","MEAN_MOTION_DOT":"-0.00005332","MEAN_ELEMENT_THEORY":"SGP4","ELEMENT_SET_NO":"999","PERIAPSIS":"546.051","EPHEMERIS_TYPE":"0","PERIOD":"95.593","SEMIMAJOR_AXIS":"6925.400"},{"TLE_LINE2":"2 45572  53.0536 256.8814 0001715  69.8062 290.3111 15.06383959150244","LAUNCH_DATE":"2020-04-22","OBJECT_NAME":"STARLINK-1320","RA_OF_ASC_NODE":"256.8814","INCLINATION":"53.0536","TIME_SYSTEM":"UTC","MEAN_MOTION_DDOT":"0.0000000000000","EPOCH":"2023-01-01T20:01:33.202848","SITE":"AFETR","TLE_LINE1":"1 45572U 20025AT  23001.83441207  .00004982  00000-0  35327-3 0  9993","DECAY_DATE":null,"BSTAR":"0.00035327000000","MEAN_ANOMALY":"290.3111","GP_ID":"221986811","OBJECT_TYPE":"PAYLOAD","COUNTRY_CODE":"US","REV_AT_EPOCH":"15024","ECCENTRICITY":"0.00017150","OBJECT_ID":"2020-025AT","APOAPSIS":"548.450","FILE":"3728952","ARG_OF_PERICENTER":"69.8062","MEAN_MOTION":"15.06383959","REF_FRAME":"TEME","RCS_SIZE":"LARGE","NORAD_CAT_ID":"45572","CENTER_NAME":"EARTH","CLASSIFICATION_TYPE":"U","ELEMENT_SET_NO":"999","MEAN_ELEMENT_THEORY":"SGP4","MEAN_MOTION_DOT":"0.00004982","PERIOD":"95.593","PERIAPSIS":"546.075","EPHEMERIS_TYPE":"0","SEMIMAJOR_AXIS":"6925.398"}];
